NORAD_CAT_ID,OBJECT_NAME,OBJECT_TYPE,EPOCH,MEAN_MOTION,ECCENTRICITY,INCLINATION,RA_OF_ASC_NODE,ARG_OF_PERICENTER,MEAN_ANOMALY,BSTAR,MEAN_MOTION_DOT,MEAN_MOTION_DDOT,TLE_LINE0,TLE_LINE1,TLE_LINE2,SEMIMAJOR_AXIS,PERIOD,APOGEE,PERIGEE,DECAYED
54168.0,STARLINK-5245,PAYLOAD,2024-05-13 22:52:03,15.08834662,0.0001267,53.2159,108.3293,88.0095,272.1042,0.00045145,6.903e-05,0.0,0 STARLINK-5245,1 54168U 22141M   24134.95282050  .00006903  00000-0  45145-3 0  9999,2 54168  53.2159 108.3293 0001267  88.0095 272.1042 15.08834662 85502,6917.897,95.438,540.638,538.885,0.0
54168.0,STARLINK-5245,PAYLOAD,2024-05-14 05:13:36,15.08841096,0.0001315,53.2156,107.141,86.1711,273.9432,0.00049936,7.669e-05,0.0,0 STARLINK-5245,1 54168U 22141M   24135.21777894  .00007669  00000-0  49936-3 0  9996,2 54168  53.2156 107.1410 0001315  86.1711 273.9432 15.08841096 85540,6917.877,95.437,540.652,538.832,0.0
54168.0,STARLINK-5245,PAYLOAD,2024-05-14 22:42:49,15.08859586,0.0001419,53.216,103.8696,80.8159,279.2994,0.00021665,3.164e-05,0.0,0 STARLINK-5245,1 54168U 22141M   24135.94640812  .00003164  00000-0  21665-3 0  9990,2 54168  53.2160 103.8696 0001419  80.8159 279.2994 15.08859586 85653,6917.821,95.436,540.667,538.704,0.0
54168.0,STARLINK-5245,PAYLOAD,2024-05-15 05:04:21,15.08867354,0.0001425,53.2162,102.6808,83.2363,276.8792,0.00031508,4.734e-05,0.0,0 STARLINK-5245,1 54168U 22141M   24136.21136160  .00004734  00000-0  31508-3 0  9998,2 54168  53.2162 102.6808 0001425  83.2363 276.8792 15.08867354 85693,6917.797,95.436,540.648,538.676,0.0
54168.0,STARLINK-5245,PAYLOAD,2024-05-15 08:15:07,15.08873542,0.0001442,53.2161,102.0858,82.136,277.9796,0.0003954,6.016e-05,0.0,0 STARLINK-5245,1 54168U 22141M   24136.34383750  .00006016  00000-0  39540-3 0  9990,2 54168  53.2161 102.0858 0001442  82.1360 277.9796 15.08873542 85710,6917.778,95.435,540.64,538.645,0.0
54168.0,STARLINK-5245,PAYLOAD,2024-05-16 04:55:08,15.08855233,0.0001903,53.2169,98.215,63.3989,296.7198,6.2574e-05,7.08e-06,0.0,0 STARLINK-5245,1 54168U 22141M   24137.20495805  .00000708  00000-0  62574-4 0  9997,2 54168  53.2169  98.2150 0001903  63.3989 296.7198 15.08855233 85845,6917.834,95.437,541.015,538.382,0.0
54168.0,STARLINK-5245,PAYLOAD,2024-05-16 06:30:31,15.08862625,0.000152,53.216,97.9223,100.5189,259.5974,0.00015954,2.254e-05,0.0,0 STARLINK-5245,1 54168U 22141M   24137.27119250  .00002254  00000-0  15954-3 0  9998,2 54168  53.2160  97.9223 0001520 100.5189 259.5974 15.08862625 85857,6917.811,95.436,540.728,538.625,0.0
54168.0,STARLINK-5245,PAYLOAD,2024-05-16 14:27:26,15.08852416,0.0001681,53.2149,96.4324,86.976,273.1425,3.3658e-05,2.48e-06,0.0,0 STARLINK-5245,1 54168U 22141M   24137.60239205  .00000248  00000-0  33658-4 0  9991,2 54168  53.2149  96.4324 0001681  86.9760 273.1425 15.08852416 85906,6917.842,95.437,540.87,538.545,0.0
54168.0,STARLINK-5245,PAYLOAD,2024-05-17 03:10:31,15.08846585,0.0001429,53.2161,94.0559,96.2843,263.8311,-6.828e-05,-1.375e-05,0.0,0 STARLINK-5245,1 54168U 22141M   24138.13231173 -.00001375  00000-0 -68280-4 0  9999,2 54168  53.2161  94.0559 0001429  96.2843 263.8311 15.08846585 85988,6917.86,95.437,540.714,538.737,0.0
54168.0,STARLINK-5245,PAYLOAD,2024-05-17 14:18:14,15.08835524,0.0001149,53.2156,91.9731,81.9529,278.1594,-8.7571e-05,-1.681e-05,0.0,0 STARLINK-5245,1 54168U 22141M   24138.59599817 -.00001681  00000-0 -87571-4 0  9995,2 54168  53.2156  91.9731 0001149  81.9529 278.1594 15.08835524 86053,6917.894,95.438,540.554,538.964,0.0
54168.0,STARLINK-5245,PAYLOAD,2024-05-18 03:01:20,15.08829642,0.0001307,53.2154,89.5921,103.9169,256.1969,-8.9795e-05,-1.716e-05,0.0,0 STARLINK-5245,1 54168U 22141M   24139.12592604 -.00001716  00000-0 -89795-4 0  9991,2 54168  53.2154  89.5921 0001307 103.9169 256.1969 15.08829642 86131,6917.912,95.438,540.681,538.873,0.0
54168.0,STARLINK-5245,PAYLOAD,2024-05-18 06:12:06,15.08841202,0.0001549,53.2163,88.9996,90.0313,270.0857,0.00018376,2.638e-05,0.0,0 STARLINK-5245,1 54168U 22141M   24139.25840378  .00002638  00000-0  18376-3 0  9997,2 54168  53.2163  88.9996 0001549  90.0313 270.0857 15.08841202 86150,6917.877,95.437,540.813,538.67,0.0
54168.0,STARLINK-5245,PAYLOAD,2024-05-18 14:09:01,15.08839265,0.00017,53.2166,87.5126,98.8572,261.2612,0.00017989,2.576e-05,0.0,0 STARLINK-5245,1 54168U 22141M   24139.58960595  .00002576  00000-0  17989-3 0  9997,2 54168  53.2166  87.5126 0001700  98.8572 261.2612 15.08839265 86208,6917.883,95.438,540.924,538.572,0.0
54168.0,STARLINK-5245,PAYLOAD,2024-05-19 02:52:06,15.08856106,0.0001247,53.215,85.1339,99.6772,260.4361,0.00063195,9.788e-05,0.0,0 STARLINK-5245,1 54168U 22141M   24140.11951987  .00009788  00000-0  63195-3 0  9995,2 54168  53.2150  85.1339 0001247  99.6772 260.4361 15.08856106 86281,6917.831,95.437,540.559,538.834,0.0
54168.0,STARLINK-5245,PAYLOAD,2024-05-20 02:42:55,15.08821359,0.0001353,53.2158,80.6734,90.2089,269.9058,-2.0678e-05,-6.17e-06,0.0,0 STARLINK-5245,1 54168U 22141M   24141.11314178 -.00000617  00000-0 -20678-4 0  9995,2 54168  53.2158  80.6734 0001353  90.2089 269.9058 15.08821359 86430,6917.937,95.439,540.738,538.866,0.0
54168.0,STARLINK-5245,PAYLOAD,2024-05-20 20:12:10,15.08838748,0.0001021,53.2148,77.4006,90.0173,270.0936,0.00067153,0.00010415,0.0,0 STARLINK-5245,1 54168U 22141M   24141.84178499  .00010415  00000-0  67153-3 0  9992,2 54168  53.2148  77.4006 0001021  90.0173 270.0936 15.08838748 86549,6917.884,95.438,540.456,539.043,0.0
54168.0,STARLINK-5245,PAYLOAD,2024-05-21 02:33:42,15.08854736,0.0001494,53.2172,76.2145,109.8651,250.2502,0.0013727,0.00021635,0.0,0 STARLINK-5245,1 54168U 22141M   24142.10673886  .00021635  00000-0  13727-2 0  9995,2 54168  53.2172  76.2145 0001494 109.8651 250.2502 15.08854736 86589,6917.835,95.437,540.734,538.667,0.0
54168.0,STARLINK-5245,PAYLOAD,2024-05-21 05:44:28,15.08859316,0.0001654,53.2173,75.6177,112.7866,247.3301,0.0014153,0.0002232,0.0,0 STARLINK-5245,1 54168U 22141M   24142.23921674  .00022320  00000-0  14153-2 0  9996,2 54168  53.2173  75.6177 0001654 112.7866 247.3301 15.08859316 86603,6917.821,95.436,540.831,538.542,0.0
54168.0,STARLINK-5245,PAYLOAD,2024-05-22 00:49:05,15.08855785,0.0001443,53.2169,72.0529,109.2845,250.8304,0.0002655,3.942e-05,0.0,0 STARLINK-5245,1 54168U 22141M   24143.03409306  .00003942  00000-0  26550-3 0  9992,2 54168  53.2169  72.0529 0001443 109.2845 250.8304 15.08855785 86725,6917.832,95.437,540.695,538.699,0.0
54168.0,STARLINK-5245,PAYLOAD,2024-05-22 05:35:14,15.0886459,0.0001333,53.2172,71.1601,97.0762,263.0381,0.00072919,0.00011344,0.0,0 STARLINK-5245,1 54168U 22141M   24143.23281040  .00011344  00000-0  72919-3 0  9992,2 54168  53.2172  71.1601 0001333  97.0762 263.0381 15.08864590 86758,6917.805,95.436,540.592,538.748,0.0
54168.0,STARLINK-5245,PAYLOAD,2024-05-23 03:50:38,15.0885039,0.0001467,53.2175,66.9963,96.4381,263.6778,0.0011994,0.00018857,0.0,0 STARLINK-5245,1 54168U 22141M   24144.16017328  .00018857  00000-0  11994-2 0  9992,2 54168  53.2175  66.9963 0001467  96.4381 263.6778 15.08850390 86896,6917.849,95.437,540.728,538.699,0.0
54168.0,STARLINK-5245,PAYLOAD,2024-05-24 03:41:25,15.08865836,0.0001562,53.2176,62.5328,102.3335,257.7832,0.0015214,0.00024025,0.0,0 STARLINK-5245,1 54168U 22141M   24145.15376906  .00024025  00000-0  15214-2 0  9995,2 54168  53.2176  62.5328 0001562 102.3335 257.7832 15.08865836 87040,6917.801,95.436,540.747,538.586,0.0
54168.0,STARLINK-5245,PAYLOAD,2024-05-24 17:59:54,15.08832623,0.0001786,53.2174,59.8622,106.4557,253.6631,0.0010988,0.00017239,0.0,0 STARLINK-5245,1 54168U 22141M   24145.74993603  .00017239  00000-0  10988-2 0  9991,2 54168  53.2174  59.8622 0001786 106.4557 253.6631 15.08832623 87133,6917.903,95.438,541.003,538.532,0.0
54168.0,STARLINK-5245,PAYLOAD,2024-05-24 22:46:03,15.08838827,0.0002715,53.2173,58.9645,133.0121,227.1099,0.00050063,7.688e-05,0.0,0 STARLINK-5245,1 54168U 22141M   24145.94865285  .00007688  00000-0  50063-3 0  9993,2 54168  53.2173  58.9645 0002715 133.0121 227.1099 15.08838827 87162,6917.884,95.438,541.627,537.871,0.0
54168.0,STARLINK-5245,PAYLOAD,2024-05-25 11:29:09,15.08830134,9.75e-05,53.217,56.5916,95.6267,264.4837,0.00021184,3.084e-05,0.0,0 STARLINK-5245,1 54168U 22141M   24146.47857950  .00003084  00000-0  21184-3 0  9990,2 54168  53.2170  56.5916 0000975  95.6267 264.4837 15.08830134 87240,6917.911,95.438,540.45,539.101,0.0
54168.0,STARLINK-5245,PAYLOAD,2024-05-26 03:23:00,15.08842907,0.0001568,53.2167,53.6172,91.2291,268.8881,0.00042447,6.474e-05,0.0,0 STARLINK-5245,1 54168U 22141M   24147.14098131  .00006474  00000-0  42447-3 0  9994,2 54168  53.2167  53.6172 0001568  91.2291 268.8881 15.08842907 87345,6917.872,95.437,540.821,538.652,0.0
54168.0,STARLINK-5245,PAYLOAD,2024-05-26 20:52:15,15.08847729,0.0001706,53.2169,50.345,92.4032,267.7155,0.00038417,5.833e-05,0.0,0 STARLINK-5245,1 54168U 22141M   24147.86962140  .00005833  00000-0  38417-3 0  9993,2 54168  53.2169  50.3450 0001706  92.4032 267.7155 15.08847729 87451,6917.857,95.437,540.902,538.542,0.0
54168.0,STARLINK-5245,PAYLOAD,2024-05-26 22:27:38,15.08849039,0.0001596,53.2173,50.0477,92.6897,267.4278,0.00038239,5.804e-05,0.0,0 STARLINK-5245,1 54168U 22141M   24147.93586061  .00005804  00000-0  38239-3 0  9995,2 54168  53.2173  50.0477 0001596  92.6897 267.4278 15.08849039 87460,6917.853,95.437,540.822,538.614,0.0
54168.0,STARLINK-5245,PAYLOAD,2024-05-27 03:13:47,15.08853655,0.0001679,53.2179,49.1544,97.3184,262.7999,0.00043023,6.568e-05,0.0,0 STARLINK-5245,1 54168U 22141M   24148.13457766  .00006568  00000-0  43023-3 0  9992,2 54168  53.2179  49.1544 0001679  97.3184 262.7999 15.08853655 87493,6917.839,95.437,540.865,538.542,0.0
54168.0,STARLINK-5245,PAYLOAD,2024-05-27 20:43:01,15.08847491,0.0001869,53.2176,45.8835,111.184,248.9352,0.00015214,2.135e-05,0.0,0 STARLINK-5245,1 54168U 22141M   24148.86321721  .00002135  00000-0  15214-3 0  9990,2 54168  53.2176  45.8835 0001869 111.1840 248.9352 15.08847491 87604,6917.857,95.437,541.015,538.43,0.0
